IRIDIUM 136             
1 42962U 17061H   24003.56530869  .00000308  00000+0  10295-3 0  9999
2 42962  86.3961  39.5302 0002406  95.3141 264.8329 14.34216483326466
